NORAD_CAT_ID,OBJECT_NAME,OBJECT_TYPE,EPOCH,MEAN_MOTION,ECCENTRICITY,INCLINATION,RA_OF_ASC_NODE,ARG_OF_PERICENTER,MEAN_ANOMALY,BSTAR,MEAN_MOTION_DOT,MEAN_MOTION_DDOT,TLE_LINE0,TLE_LINE1,TLE_LINE2,SEMIMAJOR_AXIS,PERIOD,APOGEE,PERIGEE,DECAYED
52665.0,STARLINK-4064,PAYLOAD,2022-06-27 04:00:00,15.42613326,0.0001682,53.2174,103.9143,40.3905,61.9367,-0.017621,-0.00719956,0.0,0 STARLINK-4064,1 52665U 22053K   22178.16667824 -.00719956  00000-0 -17621-1 0  9993,2 52665  53.2174 103.9143 0001682  40.3905  61.9367 15.42613326  6974,6816.5369999999975,93.348,439.548,437.255,0.0
52665.0,STARLINK-4064,PAYLOAD,2022-06-27 14:00:01,15.41974443,0.0001573,53.2175,101.9444,48.0535,209.0101,-0.017938,-0.00717474,0.0,0 STARLINK-4064,1 52665U 22053K   22178.58334491 -.00717474  00000-0 -17938-1 0  9994,2 52665  53.2175 101.9444 0001573  48.0535 209.0101 15.41974443  1302,6818.42,93.387,441.357,439.212,0.0
52665.0,STARLINK-4064,PAYLOAD,2022-06-27 22:00:00,15.41465755,0.0001567,53.2175,100.372,44.9106,263.2503,-0.018305,-0.00719585,0.0,0 STARLINK-4064,1 52665U 22053K   22178.91667824 -.00719585  00000-0 -18305-1 0  9994,2 52665  53.2175 100.3720 0001567  44.9106 263.2503 15.41465755  1303,6819.92,93.418,442.853,440.716,0.0
52665.0,STARLINK-4064,PAYLOAD,2022-06-28 06:00:00,15.40954479,0.0001571999999999,53.2173,98.8016,38.2494,320.3965,-0.018538,-0.00716622,0.0,0 STARLINK-4064,1 52665U 22053K   22179.25001157 -.00716622  00000-0 -18538-1 0  9990,2 52665  53.2173  98.8016 0001572  38.2494 320.3965 15.40954479  7142,6821.428000000001,93.449,444.365,442.221,0.0
52665.0,STARLINK-4064,PAYLOAD,2022-06-28 14:00:01,15.40444067,0.0001541999999999,53.2175,97.229,37.286,11.2345,-0.01887,-0.00717104,0.0,0 STARLINK-4064,1 52665U 22053K   22179.58334491 -.00717104  00000-0 -18870-1 0  9991,2 52665  53.2175  97.2290 0001542  37.2860  11.2345 15.40444067  1301,6822.935,93.48,445.852,443.74800000000016,0.0
52665.0,STARLINK-4064,PAYLOAD,2022-06-28 22:00:00,15.39935808,0.0001791,53.2175,95.6605,34.8257,62.9534,-0.019266,-0.00719722,0.0,0 STARLINK-4064,1 52665U 22053K   22179.91667824 -.00719722  00000-0 -19266-1 0  9995,2 52665  53.2175  95.6605 0001791  34.8257  62.9534 15.39935808  1301,6824.436,93.51,447.523,445.079,0.0
52665.0,STARLINK-4064,PAYLOAD,2022-06-29 14:00:01,15.38913364,0.0001813,53.2174,92.5243,37.4173,157.09799999999996,-0.019792,-0.00715168,0.0,0 STARLINK-4064,1 52665U 22053K   22180.58334491 -.00715168  00000-0 -19792-1 0  9995,2 52665  53.2174  92.5243 0001813  37.4173 157.0980 15.38913364  1308,6827.458000000001,93.573,450.561,448.086,0.0
52665.0,STARLINK-4064,PAYLOAD,2022-06-29 22:00:00,15.38403788,0.0001716,53.2176,90.9597,42.8292,199.1067,-0.020144,-0.0071573,0.0,0 STARLINK-4064,1 52665U 22053K   22180.91667824 -.00715730  00000-0 -20144-1 0  9999,2 52665  53.2176  90.9597 0001716  42.8292 199.1067 15.38403788  1305,6828.965999999999,93.604,452.003,449.659,0.0
52665.0,STARLINK-4064,PAYLOAD,2022-06-30 14:00:01,15.37382936,0.0001667,53.2174,87.8307,35.9917,298.9502,-0.020794,-0.00714635,0.0,0 STARLINK-4064,1 52665U 22053K   22181.58334491 -.00714635  00000-0 -20794-1 0  9998,2 52665  53.2174  87.8307 0001667  35.9917 298.9502 15.37382936  1301,6831.989000000001,93.666,454.99300000000005,452.715,0.0
52665.0,STARLINK-4064,PAYLOAD,2022-06-30 22:00:00,15.36875687,0.0001781999999999,53.2177,86.2698,33.9936,346.5295,-0.021271,-0.00718741,0.0,0 STARLINK-4064,1 52665U 22053K   22181.91667824 -.00718741  00000-0 -21271-1 0  9997,2 52665  53.2177  86.2698 0001782  33.9936 346.5295 15.36875687  1305,6833.4919999999975,93.697,456.575,454.139,0.0
52665.0,STARLINK-4064,PAYLOAD,2022-07-01 14:00:01,15.35854132,0.0001789,53.2174,83.148,35.6371,74.2156,-0.021916,-0.00716605,0.0,0 STARLINK-4064,1 52665U 22053K   22182.58334491 -.00716605  00000-0 -21916-1 0  9995,2 52665  53.2174  83.1480 0001789  35.6371  74.2156 15.35854132  7652,6836.522,93.759,459.61,457.164,0.0
52665.0,STARLINK-4064,PAYLOAD,2022-07-01 22:00:00,15.35343514,0.0001907,53.2176,81.5908,37.0414,116.5554,-0.02223,-0.00715143,0.0,0 STARLINK-4064,1 52665U 22053K   22182.91667824 -.00715143  00000-0 -22230-1 0  9997,2 52665  53.2176  81.5908 0001907  37.0414 116.5554 15.35343514  1302,6838.0369999999975,93.79,461.206,458.598,0.0
52665.0,STARLINK-4064,PAYLOAD,2022-07-02 14:00:01,15.34324149,0.0001742,53.2173,78.4761,40.4623,198.7865,-0.022999,-0.0071598999999999,0.0,0 STARLINK-4064,1 52665U 22053K   22183.58334491 -.00715990  00000-0 -22999-1 0  9994,2 52665  53.2173  78.4761 0001742  40.4623 198.7865 15.34324149  1307,6841.066,93.852,464.122,461.739,0.0
52665.0,STARLINK-4064,PAYLOAD,2022-07-02 22:00:00,15.33813644,0.0001851,53.2174,76.9228,36.3556,244.7986,-0.023327,-0.00714595,0.0,0 STARLINK-4064,1 52665U 22053K   22183.91667824 -.00714595  00000-0 -23327-1 0  9996,2 52665  53.2174  76.9228 0001851  36.3556 244.7986 15.33813644  1307,6842.584,93.884,465.715,463.182,0.0
52665.0,STARLINK-4064,PAYLOAD,2022-07-03 14:00:01,15.32792753,0.0001499,53.2172,73.8152,43.6591,319.4713,-0.024069,-0.00713814,0.0,0 STARLINK-4064,1 52665U 22053K   22184.58334491 -.00713814  00000-0 -24069-1 0  9998,2 52665  53.2172  73.8152 0001499  43.6591 319.4713 15.32792753  7967,6845.621,93.946,468.513,466.46,0.0
52665.0,STARLINK-4064,PAYLOAD,2022-07-03 22:00:00,15.32285514,0.0001885,53.2174,72.2655,32.8305,10.3657,-0.024597,-0.00717619,0.0,0 STARLINK-4064,1 52665U 22053K   22184.91667824 -.00717619  00000-0 -24597-1 0  9997,2 52665  53.2174  72.2655 0001885  32.8305  10.3657 15.32285514  1300,6847.132,93.977,470.288,467.706,0.0
52665.0,STARLINK-4064,PAYLOAD,2022-07-04 14:00:01,15.31265156,0.0001681,53.2173,69.165,42.3132,79.1822,-0.025408,-0.0071782,0.0,0 STARLINK-4064,1 52665U 22053K   22185.58334491 -.00717820  00000-0 -25408-1 0  9998,2 52665  53.2173  69.1650 0001681  42.3132  79.1822 15.31265156  8119,6850.174,94.04,473.19,470.887,0.0
52665.0,STARLINK-4064,PAYLOAD,2022-07-04 22:00:00,15.307538699999998,0.0001983,53.2173,67.619,36.1873,123.5371,-0.025706,-0.00714986,0.0,0 STARLINK-4064,1 52665U 22053K   22185.91667824 -.00714986  00000-0 -25706-1 0  9995,2 52665  53.2173  67.6190 0001983  36.1873 123.5371 15.30753870  1300,6851.699000000001,94.071,474.923,472.205,0.0
52665.0,STARLINK-4064,PAYLOAD,2022-07-05 14:00:01,15.29735077,0.0001694,53.2172,64.5256,44.7289,189.6173,-0.026629,-0.00717287,0.0,0 STARLINK-4064,1 52665U 22053K   22186.58334491 -.00717287  00000-0 -26629-1 0  9992,2 52665  53.2172  64.5256 0001694  44.7289 189.6173 15.29735077  1303,6854.741,94.134,477.767,475.444,0.0
52665.0,STARLINK-4064,PAYLOAD,2022-07-05 22:00:00,15.29223783,0.0001806,53.2172,62.9835,40.4967,230.24,-0.026939,-0.00714472,0.0,0 STARLINK-4064,1 52665U 22053K   22186.91667824 -.00714472  00000-0 -26939-1 0  9995,2 52665  53.2172  62.9835 0001806  40.4967 230.2400 15.29223783  8319,6856.268,94.165,479.372,476.895,0.0
52665.0,STARLINK-4064,PAYLOAD,2022-07-06 14:00:01,15.28203032,0.0001629,53.2172,59.8973,40.8616,300.821,-0.027761,-0.00721734,0.0,0 STARLINK-4064,1 52665U 22053K   22187.58334491 -.00721734  00000-0 -27761-1 0  9993,2 52665  53.2172  59.8973 0001629  40.8616 300.8210 15.28203032  1304,6859.321,94.228,482.304,480.069,0.0
52665.0,STARLINK-4064,PAYLOAD,2022-07-06 18:48:04,15.29189417,0.0001888,53.2162,58.9609,120.6598,239.4589,-0.0070968,-0.00198753,0.0,0 STARLINK-4064,1 52665U 22053K   22187.78339075 -.00198753  00000-0 -70968-2 0  9995,2 52665  53.2162  58.9609 0001888 120.6598 239.4589 15.29189417  8452,6856.371,94.168,479.531,476.942,0.0
52665.0,STARLINK-4064,PAYLOAD,2022-07-07 14:00:01,15.26674243,0.0001689,53.2173,55.2794,41.8465,41.6562,-0.029156,-0.00723266,0.0,0 STARLINK-4064,1 52665U 22053K   22188.58334491 -.00723266  00000-0 -29156-1 0  9996,2 52665  53.2173  55.2794 0001689  41.8465  41.6562 15.26674243  1309,6863.9,94.323,486.924,484.605,0.0
52665.0,STARLINK-4064,PAYLOAD,2022-07-07 21:30:18,15.27510813,0.0002714,53.2178,53.8341,50.8152,309.3089,-0.0078754,-0.00209199,0.0,0 STARLINK-4064,1 52665U 22053K   22188.89604789 -.00209199  00000-0 -78754-2 0  9993,2 52665  53.2178  53.8341 0002714  50.8152 309.3089 15.27510813  8622,6861.393,94.271,485.12,481.396,0.0
52665.0,STARLINK-4064,PAYLOAD,2022-07-07 22:00:00,15.26166006,0.0001827,53.2173,53.7447,40.4809,75.7345,-0.029726,-0.00725927,0.0,0 STARLINK-4064,1 52665U 22053K   22188.91667824 -.00725927  00000-0 -29726-1 0  9991,2 52665  53.2173  53.7447 0001827  40.4809  75.7345 15.26166006  8620,6865.4230000000025,94.354,488.543,486.034,0.0
52665.0,STARLINK-4064,PAYLOAD,2022-07-08 06:56:14,15.26957204,0.0005514,53.2196,52.03,27.0852,333.0435,-0.0085986,-0.00224227,0.0,0 STARLINK-4064,1 52665U 22053K   22189.28905236 -.00224227  00000-0 -85986-2 0  9992,2 52665  53.2196  52.0300 0005514  27.0852 333.0435 15.26957204  8685,6863.052,94.305,488.701,481.132,0.0
52665.0,STARLINK-4064,PAYLOAD,2022-07-08 13:13:40,15.26391294,0.0002289,53.2182,50.8177,86.9556,273.1705,-0.0075466,-0.00194158,0.0,0 STARLINK-4064,1 52665U 22053K   22189.55116475 -.00194158  00000-0 -75466-2 0  9992,2 52665  53.2182  50.8177 0002289  86.9556 273.1705 15.26391294  8729,6864.748000000001,94.34,488.184,485.041,0.0
52665.0,STARLINK-4064,PAYLOAD,2022-07-08 14:00:01,15.25145289,0.0001904,53.2174,50.6727,38.9324,140.8752,-0.030587,-0.00724353,0.0,0 STARLINK-4064,1 52665U 22053K   22189.58334491 -.00724353  00000-0 -30587-1 0  9995,2 52665  53.2174  50.6727 0001904  38.9324 140.8752 15.25145289  8724,6868.486,94.417,491.659,489.043,0.0
52665.0,STARLINK-4064,PAYLOAD,2022-07-08 22:00:01,15.24634252,0.0001972,53.2173,49.1413,38.4807,172.266,-0.030981,-0.00722607,0.0,0 STARLINK-4064,1 52665U 22053K   22189.91668981 -.00722607  00000-0 -30981-1 0  9994,2 52665  53.2173  49.1413 0001972  38.4807 172.2660 15.24634252  1300,6870.021,94.449,493.241,490.531,0.0
